QIANFAN-89              
1 63175U 25046S   25223.55894918  .00000181  00000+0  26060-3 0  9998
2 63175  88.9865 332.7341 0018469 120.4989 239.7988 13.50966012 30778
QIANFAN-90              
1 63176U 25046T   25223.58774454  .00000176  00000+0  25392-3 0  9995
2 63176  88.9865 332.7034 0015420 118.5877 241.6828 13.50964756 30796
